{
  "type": "FeatureCollection",
  "features": [
    {
      "type": "Feature",
      "properties": {
        "norad_id": 29922,
        "name": "FENGYUN 1C DEB",
        "group": "fengyun-1c-debris",
        "lat": -6.887112569478625,
        "lon": -128.45796426230817,
        "alt_km": 964.2969295825078,
        "timestamp": "2025-12-21T05:44:51.858133+00:00",
        "meta_object_name": "FENGYUN 1C DEB",
        "meta_object_id": "1999-025HU",
        "meta_epoch": "2025-12-20T16:50:06.188064",
        "meta_mean_motion": 13.98582341,
        "meta_eccentricity": 0.00927145,
        "meta_inclination": 99.134,
        "meta_ra_of_asc_node": 52.1197,
        "meta_arg_of_pericenter": 345.0062,
        "meta_mean_anomaly": 14.8357,
        "meta_ephemeris_type": 0,
        "meta_classification_type": "U",
        "meta_norad_cat_id": 29922,
        "meta_element_set_no": 999,
        "meta_rev_at_epoch": 96552,
        "meta_bstar": 3.7321246e-05,
        "meta_mean_motion_dot": 1e-07,
        "meta_mean_motion_ddot": 0,
        "tle_line1": "1 29922U 99025HU  25354.70146051  .00000010  00000+0  37321-4 0  9992",
        "tle_line2": "2 29922  99.1340  52.1197 0092714 345.0062  14.8357 13.98582341965529"
      },
      "geometry": {
        "type": "Point",
        "coordinates": [
          -128.45796426230817,
          -6.887112569478625
        ]
      }
    },
    {
      "type": "Feature",
      "properties": {
        "norad_id": 29923,
        "name": "FENGYUN 1C DEB",
        "group": "fengyun-1c-debris",
        "lat": 42.96721144547618,
        "lon": -168.52016189030746,
        "alt_km": 829.6477415984564,
        "timestamp": "2025-12-21T05:44:51.858143+00:00",
        "meta_object_name": "FENGYUN 1C DEB",
        "meta_object_id": "1999-025HV",
        "meta_epoch": "2025-12-20T12:44:27.129120",
        "meta_mean_motion": 14.13905417,
        "meta_eccentricity": 0.0017919,
        "meta_inclination": 98.6877,
        "meta_ra_of_asc_node": 2.6035,
        "meta_arg_of_pericenter": 147.5497,
        "meta_mean_anomaly": 343.9186,
        "meta_ephemeris_type": 0,
        "meta_classification_type": "U",
        "meta_norad_cat_id": 29923,
        "meta_element_set_no": 999,
        "meta_rev_at_epoch": 97385,
        "meta_bstar": 0.00034347,
        "meta_mean_motion_dot": 6.1e-06,
        "meta_mean_motion_ddot": 0,
        "tle_line1": "1 29923U 99025HV  25354.53086955  .00000610  00000+0  34347-3 0  9990",
        "tle_line2": "2 29923  98.6877   2.6035 0017919 147.5497 343.9186 14.13905417973853"
      },
      "geometry": {
        "type": "Point",
        "coordinates": [
          -168.52016189030746,
          42.96721144547618
        ]
      }
    },
    {
      "type": "Feature",
      "properties": {
        "norad_id": 29924,
        "name": "FENGYUN 1C DEB",
        "group": "fengyun-1c-debris",
        "lat": -41.66433018574153,
        "lon": 15.795122202691422,
        "alt_km": 868.0134356647868,
        "timestamp": "2025-12-21T05:44:51.858153+00:00",
        "meta_object_name": "FENGYUN 1C DEB",
        "meta_object_id": "1999-025HW",
        "meta_epoch": "2025-12-20T18:51:47.732832",
        "meta_mean_motion": 14.08892362,
        "meta_eccentricity": 0.00260637,
        "meta_inclination": 98.7338,
        "meta_ra_of_asc_node": 7.4936,
        "meta_arg_of_pericenter": 234.0712,
        "meta_mean_anomaly": 304.4804,
        "meta_ephemeris_type": 0,
        "meta_classification_type": "U",
        "meta_norad_cat_id": 29924,
        "meta_element_set_no": 999,
        "meta_rev_at_epoch": 97321,
        "meta_bstar": 0.00012101676,
        "meta_mean_motion_dot": 1.67e-06,
        "meta_mean_motion_ddot": 0,
        "tle_line1": "1 29924U 99025HW  25354.78596913  .00000167  00000+0  12102-3 0  9990",
        "tle_line2": "2 29924  98.7338   7.4936 0026063 234.0712 304.4804 14.08892362973219"
      },
      "geometry": {
        "type": "Point",
        "coordinates": [
          15.795122202691422,
          -41.66433018574153
        ]
      }
    },
    {
      "type": "Feature",
      "properties": {
        "norad_id": 29926,
        "name": "FENGYUN 1C DEB",
        "group": "fengyun-1c-debris",
        "lat": -31.511982787547417,
        "lon": 158.66159804674803,
        "alt_km": 702.3058262195846,
        "timestamp": "2025-12-21T05:44:51.858164+00:00",
        "meta_object_name": "FENGYUN 1C DEB",
        "meta_object_id": "1999-025HY",
        "meta_epoch": "2025-12-20T22:21:15.215040",
        "meta_mean_motion": 14.33413042,
        "meta_eccentricity": 0.02479335,
        "meta_inclination": 98.2839,
        "meta_ra_of_asc_node": 343.491,
        "meta_arg_of_pericenter": 275.6907,
        "meta_mean_anomaly": 149.8215,
        "meta_ephemeris_type": 0,
        "meta_classification_type": "U",
        "meta_norad_cat_id": 29926,
        "meta_element_set_no": 999,
        "meta_rev_at_epoch": 98698,
        "meta_bstar": 0.00021902345,
        "meta_mean_motion_dot": 7.99e-06,
        "meta_mean_motion_ddot": 0,
        "tle_line1": "1 29926U 99025HY  25354.93142610  .00000799  00000+0  21902-3 0  9999",
        "tle_line2": "2 29926  98.2839 343.4910 0247933 275.6907 149.8215 14.33413042986982"
      },
      "geometry": {
        "type": "Point",
        "coordinates": [
          158.66159804674803,
          -31.511982787547417
        ]
      }
    },
    {
      "type": "Feature",
      "properties": {
        "norad_id": 29927,
        "name": "FENGYUN 1C DEB",
        "group": "fengyun-1c-debris",
        "lat": 13.77078431320357,
        "lon": -157.53850801317031,
        "alt_km": 634.6974734573378,
        "timestamp": "2025-12-21T05:44:51.858187+00:00",
        "meta_object_name": "FENGYUN 1C DEB",
        "meta_object_id": "1999-025HZ",
        "meta_epoch": "2025-12-20T20:03:07.970688",
        "meta_mean_motion": 14.74830039,
        "meta_eccentricity": 0.00179999,
        "meta_inclination": 99.0826,
        "meta_ra_of_asc_node": 19.7619,
        "meta_arg_of_pericenter": 185.8148,
        "meta_mean_anomaly": 356.5506,
        "meta_ephemeris_type": 0,
        "meta_classification_type": "U",
        "meta_norad_cat_id": 29927,
        "meta_element_set_no": 999,
        "meta_rev_at_epoch": 98766,
        "meta_bstar": 0.0015774441,
        "meta_mean_motion_dot": 0.00010549,
        "meta_mean_motion_ddot": 0,
        "tle_line1": "1 29927U 99025HZ  25354.83550892  .00010549  00000+0  15774-2 0  9997",
        "tle_line2": "2 29927  99.0826  19.7619 0017999 185.8148 356.5506 14.74830039987663"
      },
      "geometry": {
        "type": "Point",
        "coordinates": [
          -157.53850801317031,
          13.77078431320357
        ]
      }
    },
    {
      "type": "Feature",
      "properties": {
        "norad_id": 29928,
        "name": "FENGYUN 1C DEB",
        "group": "fengyun-1c-debris",
        "lat": 28.11153455516259,
        "lon": -155.0898573916071,
        "alt_km": 898.2236741836723,
        "timestamp": "2025-12-21T05:44:51.858198+00:00",
        "meta_object_name": "FENGYUN 1C DEB",
        "meta_object_id": "1999-025JA",
        "meta_epoch": "2025-12-20T01:29:16.780992",
        "meta_mean_motion": 13.88096151,
        "meta_eccentricity": 0.01431859,
        "meta_inclination": 99.5837,
        "meta_ra_of_asc_node": 18.5232,
        "meta_arg_of_pericenter": 83.6604,
        "meta_mean_anomaly": 305.1939,
        "meta_ephemeris_type": 0,
        "meta_classification_type": "U",
        "meta_norad_cat_id": 29928,
        "meta_element_set_no": 999,
        "meta_rev_at_epoch": 95593,
        "meta_bstar": 0.00050416905,
        "meta_mean_motion_dot": 6.07e-06,
        "meta_mean_motion_ddot": 0,
        "tle_line1": "1 29928U 99025JA  25354.06199978  .00000607  00000+0  50417-3 0  9995",
        "tle_line2": "2 29928  99.5837  18.5232 0143185  83.6604 305.1939 13.88096151955936"
      },
      "geometry": {
        "type": "Point",
        "coordinates": [
          -155.0898573916071,
          28.11153455516259
        ]
      }
    },
    {
      "type": "Feature",
      "properties": {
        "norad_id": 29929,
        "name": "FENGYUN 1C DEB",
        "group": "fengyun-1c-debris",
        "lat": 55.78025591746867,
        "lon": -98.87459162954296,
        "alt_km": 891.6617089981,
        "timestamp": "2025-12-21T05:44:51.858209+00:00",
        "meta_object_name": "FENGYUN 1C DEB",
        "meta_object_id": "1999-025JB",
        "meta_epoch": "2025-12-20T00:25:14.158272",
        "meta_mean_motion": 14.0138035,
        "meta_eccentricity": 0.01315572,
        "meta_inclination": 98.6245,
        "meta_ra_of_asc_node": 272.8647,
        "meta_arg_of_pericenter": 155.7952,
        "meta_mean_anomaly": 221.1675,
        "meta_ephemeris_type": 0,
        "meta_classification_type": "U",
        "meta_norad_cat_id": 29929,
        "meta_element_set_no": 999,
        "meta_rev_at_epoch": 96058,
        "meta_bstar": 0.0007000053,
        "meta_mean_motion_dot": 1.098e-05,
        "meta_mean_motion_ddot": 0,
        "tle_line1": "1 29929U 99025JB  25354.01752498  .00001098  00000+0  70001-3 0  9999",
        "tle_line2": "2 29929  98.6245 272.8647 0131557 155.7952 221.1675 14.01380350960586"
      },
      "geometry": {
        "type": "Point",
        "coordinates": [
          -98.87459162954296,
          55.78025591746867
        ]
      }
    }
  ]
}